[{"OBJECT_NAME":"ICEYE-X21","OBJECT_ID":"2023-001AS","EPOCH":"2026-03-09T21:59:09.131424","MEAN_MOTION":15.76746514,"ECCENTRICITY":0.00038894,"INCLINATION":97.3381,"RA_OF_ASC_NODE":147.8147,"ARG_OF_PERICENTER":74.7456,"MEAN_ANOMALY":285.424,"EPHEMERIS_TYPE":0,"CLASSIFICATION_TYPE":"U","NORAD_CAT_ID":55049,"ELEMENT_SET_NO":999,"REV_AT_EPOCH":17785,"BSTAR":0.00056259315,"MEAN_MOTION_DOT":0.00090659,"MEAN_MOTION_DDOT":0},{"OBJECT_NAME":"STARLINK-36991","OBJECT_ID":"2026-039AB","EPOCH":"2026-03-09T22:00:01.999584","MEAN_MOTION":15.86272058,"ECCENTRICITY":0.0001714,"INCLINATION":42.9972,"RA_OF_ASC_NODE":53.2874,"ARG_OF_PERICENTER":262.3348,"MEAN_ANOMALY":98.9266,"EPHEMERIS_TYPE":0,"CLASSIFICATION_TYPE":"U","NORAD_CAT_ID":68011,"ELEMENT_SET_NO":999,"REV_AT_EPOCH":291,"BSTAR":-0.0068898297,"MEAN_MOTION_DOT":-0.0156435,"MEAN_MOTION_DDOT":0}]
